CSS (TIANHE)            
1 48274U 21035A   24107.45624653  .00028966  00000+0  29856-3 0  9998
2 48274  41.4679 100.2333 0006885   8.9603 351.1358 15.64145693169436
